OBJECT_NAME,OBJECT_ID,EPOCH,MEAN_MOTION,ECCENTRICITY,INCLINATION,RA_OF_ASC_NODE,ARG_OF_PERICENTER,MEAN_ANOMALY,EPHEMERIS_TYPE,CLASSIFICATION_TYPE,NORAD_CAT_ID,ELEMENT_SET_NO,REV_AT_EPOCH,BSTAR,MEAN_MOTION_DOT,MEAN_MOTION_DDOT
LEMUR-2-LAILA,2025-276DQ,2026-06-06T04:04:53.895072,15.21149531,.00014774,97.4172,231.2216,147.6331,212.4995,0,U,66776,999,2877,.34819686E-3,.7688E-4,0
LEMUR-2-CELIJO-SB-PK,2025-276DW,2026-06-05T10:17:07.769760,14.99826128,.0008713,97.5284,227.5913,161.2327,198.9219,0,U,66781,999,2086,.53214773E-3,.6538E-4,0
LEMUR-2-FINNIAN,2025-276DX,2026-06-05T22:36:50.444928,15.00233719,.00083804,97.5251,228.2942,122.8932,237.3100,0,U,66782,999,1831,.73281031E-3,.9124E-4,0
LEMUR-2-STARLIGHT,2025-276DY,2026-06-05T22:55:47.833536,14.98922038,.00152469,97.5272,227.9767,160.5333,199.6475,0,U,66783,999,2851,.68017803E-3,.8192E-4,0
LEMUR-2-TARTIFLETTE,2025-276DZ,2026-06-05T22:53:53.779488,14.98941011,.00138425,97.5273,227.9811,166.6574,193.5018,0,U,66784,999,2851,.8485462E-3,.10238E-3,0
LEMUR-2-VUKASIN,2025-276EA,2026-06-05T22:58:43.338720,15.00238837,.00062034,97.5301,228.2542,150.5566,209.6008,0,U,66785,999,2846,.70451345E-3,.8767E-4,0
LEMUR-2-HOTSPUR-TOM,2025-276EB,2026-06-05T22:41:54.352608,14.98816357,.00151172,97.5240,227.9586,162.4124,197.7626,0,U,66786,999,2844,.78468983E-3,.9435E-4,0
LEMUR-2-MYRA,2025-276EC,2026-06-05T10:54:06.462144,15.00080983,.00151867,97.5221,227.7218,180.5755,179.5454,0,U,66787,999,2845,.52846564E-3,.6546E-4,0
LEMUR-2 FIKRETDENGIZ,2026-004A,2026-06-03T13:16:36.378048,14.88221873,.00088388,97.8015,153.3224,173.3369,186.7966,0,U,67363,999,2125,.51674204E-3,.4718E-4,0
TWILIGHT-1 OBJECT B,2026-004B,2026-06-05T10:55:55.667424,14.87660452,.00091192,97.8060,155.2148,158.7603,201.3994,0,U,67364,999,2154,.22621011E-3,.2006E-4,0
LEMUR-2-MARIO-SOUSA,2026-004C,2026-06-05T19:46:52.749696,14.88423624,.00086636,97.7995,155.5546,166.5581,193.5868,0,U,67365,999,2160,.63097596E-3,.5803E-4,0
LEMUR-2-SONNENBLUME,2026-004E,2026-06-05T11:38:28.799520,14.88255227,.00081285,97.7984,155.2095,169.9945,190.1435,0,U,67367,999,2155,.37530442E-3,.3414E-4,0
LEMUR-2-WOBLER,2026-004F,2026-06-05T21:12:05.918112,14.88439297,.00086376,97.8042,155.7125,157.6666,202.4929,0,U,67368,999,2161,.61119435E-3,.5622E-4,0
LEMUR-2-GRAM-E-SUE,2026-004H,2026-06-05T19:21:28.046304,14.88420895,.00071971,97.7973,155.5402,169.0553,191.0822,0,U,67370,999,2160,.37860746E-3,.3458E-4,0
LEMUR-2-KATIE,2026-004AA,2026-06-05T19:20:21.521760,14.89967772,.00045674,97.8038,155.9621,116.2885,243.8803,0,U,67387,999,2161,.64458561E-3,.6159E-4,0
LEMUR-2-HCS-BAZUS,2026-004AB,2026-06-05T19:19:03.886176,14.89961167,.00042419,97.8024,155.9437,111.8230,248.3439,0,U,67388,999,2161,.72108589E-3,.6896E-4,0
